ONEWEB-0665             
1 55825U 23029AF  26001.38430483 -.00000112  00000+0 -33754-3 0  9993
2 55825  87.9007 322.9701 0001849  70.8109 289.3220 13.14501898137499
ONEWEB-0666             
1 55826U 23029AG  26001.29292988 -.00000001  00000+0 -35304-4 0  9991
2 55826  87.9218 307.7753 0001467 103.3212 256.8085 13.20769559139122
ONEWEB-0667             
1 55827U 23029AH  26001.36238514  .00000041  00000+0  70091-4 0  9999
2 55827  87.9228 307.6965 0001901  72.1547 287.9794 13.20772926139129
ONEWEB-0669             
1 55828U 23029AJ  26001.58494404  .00001160  00000+0  28200-2 0  9992
2 55828  87.9212 307.6846 0002442  89.1142 271.0271 13.20787195139152
ONEWEB-0670             
1 55829U 23029AK  26001.43822174 -.00000006  00000+0 -49941-4 0  9993
2 55829  87.9004 322.9795 0002101  76.3697 283.7667 13.14504535137526
ONEWEB-0671             
1 55830U 23029AL  26001.49400124  .00000077  00000+0  16125-3 0  9991
2 55830  87.9212 338.1473 0001855  78.4974 281.6367 13.19723392136912
ONEWEB-0672             
1 55831U 23029AM  26001.58019075  .00000032  00000+0  47299-4 0  9991
2 55831  87.9221 307.6665 0001705  86.3958 273.7371 13.20772090139158
ONEWEB-0673             
1 55832U 23029AN  26001.47109904  .00000008  00000+0 -11430-4 0  9993
2 55832  87.9223 338.1340 0001874  80.7961 279.3384 13.19727950136919
